<?xml version="1.0" encoding="UTF-8"?>
<kml xmlns="http://www.opengis.net/kml/2.2"><Document xmlns=""><Folder><name>Pontos</name><Placemark><name>000</name><Point><coordinates>-44.5260131132387,-14.2657578480215</coordinates></Point></Placemark><Placemark><name>001</name><Point><coordinates>-44.518347157276295,-14.26705952377834</coordinates></Point></Placemark><Placemark><name>002</name><Point><coordinates>-44.51065223711152,-14.270411030071271</coordinates></Point></Placemark><Placemark><name>003</name><Point><coordinates>-44.503272658383715,-14.27162552075352</coordinates></Point></Placemark><Placemark><name>004</name><Point><coordinates>-44.49587345118243,-14.275415154618818</coordinates></Point></Placemark><Placemark><name>005</name><Point><coordinates>-44.48914945841983,-14.276042471892538</coordinates></Point></Placemark><Placemark><name>006</name><Point><coordinates>-44.48098914329596,-14.279224185450555</coordinates></Point></Placemark><Placemark><name>007</name><Point><coordinates>-44.472295754357006,-14.278271063691607</coordinates></Point></Placemark><Placemark><name>008</name><Point><coordinates>-44.46367937593353,-14.276340917314922</coordinates></Point></Placemark><Placemark><name>009</name><Point><coordinates>-44.45719667680246,-14.272151239099793</coordinates></Point></Placemark><Placemark><name>010</name><Point><coordinates>-44.45146360375839,-14.275624239609979</coordinates></Point></Placemark><Placemark><name>011</name><Point><coordinates>-44.44677089348439,-14.271677267249913</coordinates></Point></Placemark><Placemark><name>012</name><Point><coordinates>-44.44152277383579,-14.273947252545787</coordinates></Point></Placemark><Placemark><name>013</name><Point><coordinates>-44.43472916387904,-14.271335003244278</coordinates></Point></Placemark><Placemark><name>014</name><Point><coordinates>-44.43006023586892,-14.274500289994524</coordinates></Point></Placemark><Placemark><name>015</name><Point><coordinates>-44.426672534958215,-14.273334733546232</coordinates></Point></Placemark><Placemark><name>016</name><Point><coordinates>-44.42619012027941,-14.279163827772114</coordinates></Point></Placemark><Placemark><name>017</name><Point><coordinates>-44.42345878234399,-14.277914990443474</coordinates></Point></Placemark><Placemark><name>018</name><Point><coordinates>-44.41501515135243,-14.279460797087582</coordinates></Point></Placemark><Placemark><name>019</name><Point><coordinates>-44.40672348901047,-14.278782995600569</coordinates></Point></Placemark><Placemark><name>020</name><Point><coordinates>-44.39790880463844,-14.27665186842435</coordinates></Point></Placemark><Placemark><name>021</name><Point><coordinates>-44.39548708259649,-14.276143479982174</coordinates></Point></Placemark><Placemark><name>022</name><Point><coordinates>-44.389433117263685,-14.277563478478621</coordinates></Point></Placemark><Placemark><name>023</name><Point><coordinates>-44.383331719531505,-14.278023960100654</coordinates></Point></Placemark><Placemark><name>024</name><Point><coordinates>-44.376844570637104,-14.273148261526899</coordinates></Point></Placemark><Placemark><name>025</name><Point><coordinates>-44.37512346119749,-14.270231592724363</coordinates></Point></Placemark><Placemark><name>026</name><Point><coordinates>-44.3707025251712,-14.272130331463794</coordinates></Point></Placemark><Placemark><name>027</name><Point><coordinates>-44.36460080336747,-14.272335214824164</coordinates></Point></Placemark><Placemark><name>028</name><Point><coordinates>-44.356512946744715,-14.268862315690853</coordinates></Point></Placemark><Placemark><name>029</name><Point><coordinates>-44.35187663265646,-14.261819332829937</coordinates></Point></Placemark><Placemark><name>030</name><Point><coordinates>-44.349864760414484,-14.256034499290257</coordinates></Point></Placemark><Placemark><name>031</name><Point><coordinates>-44.34134848391377,-14.2562430053649</coordinates></Point></Placemark><Placemark><name>032</name><Point><coordinates>-44.34005831626053,-14.248755497930219</coordinates></Point></Placemark><Placemark><name>033</name><Point><coordinates>-44.33266387825039,-14.246610962393786</coordinates></Point></Placemark><Placemark><name>034</name><Point><coordinates>-44.32376997326444,-14.244134324420811</coordinates></Point></Placemark><Placemark><name>035</name><Point><coordinates>-44.31662161145907,-14.239614858553924</coordinates></Point></Placemark><Placemark><name>036</name><Point><coordinates>-44.31107300803082,-14.245352255524566</coordinates></Point></Placemark><Placemark><name>037</name><Point><coordinates>-44.30427827574217,-14.250161406782269</coordinates></Point></Placemark><Placemark><name>038</name><Point><coordinates>-44.2965216479283,-14.251754622829386</coordinates></Point></Placemark><Placemark><name>039</name><Point><coordinates>-44.2876784062379,-14.249615892835857</coordinates></Point></Placemark><Placemark><name>040</name><Point><coordinates>-44.28096446898133,-14.248092986167904</coordinates></Point></Placemark><Placemark><name>041</name><Point><coordinates>-44.27737239055214,-14.250896850408651</coordinates></Point></Placemark><Placemark><name>042</name><Point><coordinates>-44.27159391374978,-14.244657149302677</coordinates></Point></Placemark><Placemark><name>043</name><Point><coordinates>-44.26289232670536,-14.247439070391165</coordinates></Point></Placemark><Placemark><name>044</name><Point><coordinates>-44.25438949619019,-14.250762417292027</coordinates></Point></Placemark><Placemark><name>045</name><Point><coordinates>-44.24990263749585,-14.25758754913936</coordinates></Point></Placemark><Placemark><name>046</name><Point><coordinates>-44.24447549065599,-14.25485377001486</coordinates></Point></Placemark><Placemark><name>047</name><Point><coordinates>-44.24857389426178,-14.25125935939638</coordinates></Point></Placemark><Placemark><name>048</name><Point><coordinates>-44.24058787858143,-14.253688402576998</coordinates></Point></Placemark><Placemark><name>049</name><Point><coordinates>-44.23713263282968,-14.254733249693103</coordinates></Point></Placemark><Placemark><name>050</name><Point><coordinates>-44.238675089254556,-14.247124133156438</coordinates></Point></Placemark><Placemark><name>051</name><Point><coordinates>-44.23751972886113,-14.243831575754275</coordinates></Point></Placemark><Placemark><name>052</name><Point><coordinates>-44.23713345304992,-14.239723120325802</coordinates></Point></Placemark><Placemark><name>053</name><Point><coordinates>-44.2284286040398,-14.242395547557896</coordinates></Point></Placemark><Placemark><name>054</name><Point><coordinates>-44.21999306869265,-14.242607427162353</coordinates></Point></Placemark><Placemark><name>055</name><Point><coordinates>-44.216414148874115,-14.237453905619436</coordinates></Point></Placemark><Placemark><name>056</name><Point><coordinates>-44.21284847883753,-14.232725876054555</coordinates></Point></Placemark><Placemark><name>057</name><Point><coordinates>-44.20908527232271,-14.23982533184069</coordinates></Point></Placemark><Placemark><name>058</name><Point><coordinates>-44.206199963791406,-14.247728207008615</coordinates></Point></Placemark><Placemark><name>059</name><Point><coordinates>-44.200527830430666,-14.253210857943436</coordinates></Point></Placemark><Placemark><name>060</name><Point><coordinates>-44.19276896463345,-14.256268894963256</coordinates></Point></Placemark><Placemark><name>061</name><Point><coordinates>-44.183653453208564,-14.256571017418052</coordinates></Point></Placemark><Placemark><name>062</name><Point><coordinates>-44.176534341160796,-14.262129854791569</coordinates></Point></Placemark><Placemark><name>063</name><Point><coordinates>-44.16960634127797,-14.267855413014077</coordinates></Point></Placemark><Placemark><name>064</name><Point><coordinates>-44.16269870809987,-14.263946497714006</coordinates></Point></Placemark><Placemark><name>065</name><Point><coordinates>-44.159258770876086,-14.257239247987192</coordinates></Point></Placemark><Placemark><name>066</name><Point><coordinates>-44.1506975683781,-14.260510706098982</coordinates></Point></Placemark><Placemark><name>067</name><Point><coordinates>-44.14208912243068,-14.261594954931908</coordinates></Point></Placemark><Placemark><name>068</name><Point><coordinates>-44.13509017812096,-14.266377516782667</coordinates></Point></Placemark><Placemark><name>069</name><Point><coordinates>-44.13659102115263,-14.274974810028057</coordinates></Point></Placemark><Placemark><name>070</name><Point><coordinates>-44.143392844018344,-14.27783000789889</coordinates></Point></Placemark><Placemark><name>071</name><Point><coordinates>-44.13503930138851,-14.281230255718846</coordinates></Point></Placemark><Placemark><name>072</name><Point><coordinates>-44.1289157055627,-14.276776939901888</coordinates></Point></Placemark><Placemark><name>073</name><Point><coordinates>-44.12168684545751,-14.271621173494042</coordinates></Point></Placemark><Placemark><name>074</name><Point><coordinates>-44.11631889417723,-14.26481587069532</coordinates></Point></Placemark><Placemark><name>075</name><Point><coordinates>-44.1120360633473,-14.257785163119685</coordinates></Point></Placemark><Placemark><name>076</name><Point><coordinates>-44.107137103904556,-14.262202310756463</coordinates></Point></Placemark><Placemark><name>077</name><Point><coordinates>-44.102652490748696,-14.269927847723856</coordinates></Point></Placemark><Placemark><name>078</name><Point><coordinates>-44.094160414990334,-14.272519545660222</coordinates></Point></Placemark><Placemark><name>079</name><Point><coordinates>-44.08686791239515,-14.26810720809468</coordinates></Point></Placemark><Placemark><name>080</name><Point><coordinates>-44.08830473918329,-14.276158847979973</coordinates></Point></Placemark><Placemark><name>081</name><Point><coordinates>-44.081847231031006,-14.272790938882705</coordinates></Point></Placemark><Placemark><name>082</name><Point><coordinates>-44.08043025964056,-14.268744615847508</coordinates></Point></Placemark><Placemark><name>083</name><Point><coordinates>-44.0748893776994,-14.271915009676553</coordinates></Point></Placemark><Placemark><name>084</name><Point><coordinates>-44.07657872632256,-14.27876956305932</coordinates></Point></Placemark><Placemark><name>085</name><Point><coordinates>-44.075179485526526,-14.282684978581058</coordinates></Point></Placemark><Placemark><name>086</name><Point><coordinates>-44.07180102327085,-14.281822960176902</coordinates></Point></Placemark><Placemark><name>087</name><Point><coordinates>-44.06456657740521,-14.278547056089698</coordinates></Point></Placemark><Placemark><name>088</name><Point><coordinates>-44.05914443669482,-14.279491488291917</coordinates></Point></Placemark><Placemark><name>089</name><Point><coordinates>-44.058050925342656,-14.281780077653387</coordinates></Point></Placemark><Placemark><name>090</name><Point><coordinates>-44.05073774293231,-14.285316602169774</coordinates></Point></Placemark><Placemark><name>091</name><Point><coordinates>-44.04381152300814,-14.284932142105252</coordinates></Point></Placemark><Placemark><name>092</name><Point><coordinates>-44.038729247929844,-14.281698479423735</coordinates></Point></Placemark><Placemark><name>093</name><Point><coordinates>-44.03526601983828,-14.289221638745925</coordinates></Point></Placemark><Placemark><name>094</name><Point><coordinates>-44.029180573485874,-14.283104543573774</coordinates></Point></Placemark><Placemark><name>095</name><Point><coordinates>-44.025821089436356,-14.275345229940259</coordinates></Point></Placemark><Placemark><name>096</name><Point><coordinates>-44.01740225432222,-14.276252219875538</coordinates></Point></Placemark><Placemark><name>097</name><Point><coordinates>-44.01509845460741,-14.271341553207325</coordinates></Point></Placemark><Placemark><name>098</name><Point><coordinates>-44.007922497024325,-14.270360451948488</coordinates></Point></Placemark><Placemark><name>099</name><Point><coordinates>-44.00143557348248,-14.266424246279945</coordinates></Point></Placemark><Placemark><name>100</name><Point><coordinates>-43.99391108046808,-14.267646579280568</coordinates></Point></Placemark><Placemark><name>101</name><Point><coordinates>-43.985923168211535,-14.267298265000816</coordinates></Point></Placemark><Placemark><name>102</name><Point><coordinates>-43.982482423951964,-14.275228129220979</coordinates></Point></Placemark><Placemark><name>103</name><Point><coordinates>-43.97849504946853,-14.282577988571953</coordinates></Point></Placemark><Placemark><name>104</name><Point><coordinates>-43.973521459217764,-14.27684776556079</coordinates></Point></Placemark><Placemark><name>105</name><Point><coordinates>-43.96965690593479,-14.273514528426231</coordinates></Point></Placemark><Placemark><name>106</name><Point><coordinates>-43.96459771712614,-14.28074835707607</coordinates></Point></Placemark><Placemark><name>107</name><Point><coordinates>-43.9621025018656,-14.289288578687529</coordinates></Point></Placemark><Placemark><name>108</name><Point><coordinates>-43.95527253983985,-14.291819739315223</coordinates></Point></Placemark><Placemark><name>109</name><Point><coordinates>-43.95469078092023,-14.299443373214205</coordinates></Point></Placemark><Placemark><name>110</name><Point><coordinates>-43.95087159556919,-14.29203166050918</coordinates></Point></Placemark><Placemark><name>111</name><Point><coordinates>-43.944931532486066,-14.29146158937703</coordinates></Point></Placemark><Placemark><name>112</name><Point><coordinates>-43.94286116496435,-14.300042914725305</coordinates></Point></Placemark><Placemark><name>113</name><Point><coordinates>-43.9408059680723,-14.302116610931483</coordinates></Point></Placemark><Placemark><name>114</name><Point><coordinates>-43.93444023897706,-14.295645860543358</coordinates></Point></Placemark><Placemark><name>115</name><Point><coordinates>-43.930768282590485,-14.302006936255871</coordinates></Point></Placemark><Placemark><name>116</name><Point><coordinates>-43.9242052256133,-14.304194016950321</coordinates></Point></Placemark><Placemark><name>117</name><Point><coordinates>-43.92454739805571,-14.295565679724952</coordinates></Point></Placemark><Placemark><name>118</name><Point><coordinates>-43.917827017760274,-14.295188030635515</coordinates></Point></Placemark><Placemark><name>119</name><Point><coordinates>-43.915574748794306,-14.302581718644863</coordinates></Point></Placemark><Placemark><name>120</name><Point><coordinates>-43.9093750475226,-14.302094185088105</coordinates></Point></Placemark><Placemark><name>121</name><Point><coordinates>-43.90870586183724,-14.298164983942431</coordinates></Point></Placemark><Placemark><name>122</name><Point><coordinates>-43.904393246976326,-14.296359169933506</coordinates></Point></Placemark><Placemark><name>123</name><Point><coordinates>-43.902277922929656,-14.29797930400324</coordinates></Point></Placemark><Placemark><name>124</name><Point><coordinates>-43.89431605251562,-14.300723983822806</coordinates></Point></Placemark><Placemark><name>125</name><Point><coordinates>-43.89240778550945,-14.294997287098054</coordinates></Point></Placemark><Placemark><name>126</name><Point><coordinates>-43.889444057335105,-14.297019743579979</coordinates></Point></Placemark><Placemark><name>127</name><Point><coordinates>-43.89070904001633,-14.305819995594382</coordinates></Point></Placemark><Placemark><name>128</name><Point><coordinates>-43.883947239106114,-14.307870262971687</coordinates></Point></Placemark><Placemark><name>129</name><Point><coordinates>-43.880275887085645,-14.309904654583118</coordinates></Point></Placemark><Placemark><name>130</name><Point><coordinates>-43.875107317773896,-14.313263518024982</coordinates></Point></Placemark><Placemark><name>131</name><Point><coordinates>-43.871765587976746,-14.312618688472135</coordinates></Point></Placemark><Placemark><name>132</name><Point><coordinates>-43.86487848292399,-14.31189233634176</coordinates></Point></Placemark><Placemark><name>133</name><Point><coordinates>-43.85622896304607,-14.310246114849196</coordinates></Point></Placemark><Placemark><name>134</name><Point><coordinates>-43.85146609094828,-14.311870115863465</coordinates></Point></Placemark><Placemark><name>135</name><Point><coordinates>-43.85505910480292,-14.318588643365443</coordinates></Point></Placemark><Placemark><name>136</name><Point><coordinates>-43.8486374702779,-14.314485195503584</coordinates></Point></Placemark><Placemark><name>137</name><Point><coordinates>-43.8452151390569,-14.31840929866359</coordinates></Point></Placemark><Placemark><name>138</name><Point><coordinates>-43.84441833929118,-14.320144399266725</coordinates></Point></Placemark><Placemark><name>139</name><Point><coordinates>-43.83842110480972,-14.313956557019747</coordinates></Point></Placemark><Placemark><name>140</name><Point><coordinates>-43.832159511102816,-14.314047614930814</coordinates></Point></Placemark><Placemark><name>141</name><Point><coordinates>-43.823819192519764,-14.315487814992236</coordinates></Point></Placemark><Placemark><name>142</name><Point><coordinates>-43.817748726144295,-14.313197808010926</coordinates></Point></Placemark><Placemark><name>143</name><Point><coordinates>-43.822219197915146,-14.320672122770103</coordinates></Point></Placemark><Placemark><name>144</name><Point><coordinates>-43.81706904421213,-14.321766070046202</coordinates></Point></Placemark><Placemark><name>145</name><Point><coordinates>-43.814298861096745,-14.326599903643741</coordinates></Point></Placemark><Placemark><name>146</name><Point><coordinates>-43.807933585688204,-14.325602370266278</coordinates></Point></Placemark><Placemark><name>147</name><Point><coordinates>-43.806559694747165,-14.333431034414511</coordinates></Point></Placemark><Placemark><name>148</name><Point><coordinates>-43.79904668465868,-14.338708525081586</coordinates></Point></Placemark><Placemark><name>149</name><Point><coordinates>-43.79107150567234,-14.336324189155413</coordinates></Point></Placemark><Placemark><name>FIM</name><Point><coordinates>-43.7823921181036,-14.3366174770293</coordinates></Point></Placemark></Folder></Document></kml>